      2.10          N: GNSS NAV DATA                        RINEX VERSION / TYPE
fic2rin                                 11/08/2024 00:59:02 PGM / RUN BY / DATE
                                                            END OF HEADER
20 24 11  7 17 59 44.0  .368948560208D-03 -.341060513165D-12  .000000000000D+00
     .400000000000D+02 -.685625000000D+02  .449804450447D-08  .253425020535D+01
    -.349245965481D-05  .385354505852D-02  .393204391003D-05  .515363453484D+04
     .410384000000D+06 -.372529029846D-07  .649517633302D-02 -.126659870148D-06
     .956315432273D+00  .299437500000D+03 -.247492572465D+01 -.820784188956D-08
     .657170230921D-10  .100000000000D+01  .233900000000D+04  .000000000000D+00
     .240000000000D+01  .000000000000D+00 -.838190317154D-08  .400000000000D+02
     .403200000000D+06  .400000000000D+01
2  24 11  7 18  0  0.0 -.319770537317D-03  .852651282912D-11  .000000000000D+00
     .170000000000D+02  .645937500000D+02  .420017495415D-08 -.201323187290D+01
     .376813113689D-05  .163507600082D-01  .419467687607D-05  .515368599510D+04
     .410400000000D+06 -.409781932831D-07 -.945888483663D+00  .378116965294D-06
     .966682159861D+00  .302781250000D+03 -.110503866856D+01 -.801247660895D-08
     .900037490174D-10  .100000000000D+01  .233900000000D+04  .000000000000D+00
     .240000000000D+01  .000000000000D+00 -.176951289177D-07  .170000000000D+02
     .403200000000D+06  .400000000000D+01
6  24 11  7 18  0  0.0 -.969213433564D-04 -.288764567813D-10  .000000000000D+00
     .140000000000D+02  .385312500000D+02  .372836958727D-08  .222582132440D+01
     .215135514736D-05  .322957383469D-02  .355392694473D-05  .515372921371D+04
     .410400000000D+06 -.186264514923D-08 -.843899534706D+00  .409781932831D-07
     .989412164668D+00  .325312500000D+03 -.768592984126D+00 -.783068332225D-08
     .285726187357D-10  .100000000000D+01  .233900000000D+04  .000000000000D+00
     .240000000000D+01  .000000000000D+00  .372529029846D-08  .140000000000D+02
     .403200000000D+06  .400000000000D+01
4  24 11  7 18  0  0.0  .475491397083D-03  .659383658785D-11  .000000000000D+00
     .280000000000D+02 -.632500000000D+02  .436089593453D-08 -.246546080560D+01
    -.333227217197D-05  .314240495209D-02  .899657607079D-05  .515369485664D+04
     .410400000000D+06 -.167638063431D-07  .126830367776D+01 -.316649675369D-07
     .965818065353D+00  .214593750000D+03 -.300361789775D+01 -.779068165602D-08
     .348943106310D-09  .100000000000D+01  .233900000000D+04  .000000000000D+00
     .240000000000D+01  .000000000000D+00 -.465661287308D-08  .280000000000D+02
     .403200000000D+06  .400000000000D+01
3  24 11  7 18  0  0.0  .593408476561D-03  .104591890704D-10  .000000000000D+00
     .180000000000D+02 -.699687500000D+02  .388123309751D-08  .756343843774D+00
    -.388547778130D-05  .566579098813D-02  .450387597084D-05  .515363312721D+04
     .410400000000D+06 -.391155481339D-07  .191562156064D+00 -.931322574615D-08
     .987105795319D+00  .305250000000D+03  .116279016562D+01 -.795354558281D-08
     .339299847486D-10  .100000000000D+01  .233900000000D+04  .000000000000D+00
     .240000000000D+01  .000000000000D+00  .139698386192D-08  .180000000000D+02
     .403200000000D+06  .400000000000D+01
9  24 11  7 18  0  0.0  .433312729001D-03  .169393388205D-10  .000000000000D+00
     .160000000000D+02 -.607500000000D+02  .452590280773D-08 -.162950982415D+01
    -.303983688354D-05  .319149054121D-02  .870041549206D-05  .515357139206D+04
     .410400000000D+06 -.260770320892D-07  .120750581180D+01  .391155481339D-07
     .959584805485D+00  .216937500000D+03  .201273759238D+01 -.793568769610D-08
     .344300055765D-09  .100000000000D+01  .233900000000D+04  .000000000000D+00
     .240000000000D+01  .000000000000D+00  .465661287308D-09  .160000000000D+02
     .403200000000D+06  .400000000000D+01
5  24 11  7 18  0  0.0 -.192273873836D-03 -.113686837722D-11  .000000000000D+00
     .118000000000D+03 -.772500000000D+02  .411481425567D-08 -.184158469568D+01
    -.383146107197D-05  .572196382564D-02  .428222119808D-05  .515370112801D+04
     .410400000000D+06  .428408384323D-07  .138108832284D+00  .335276126862D-07
     .973999983306D+00  .297000000000D+03  .133842920594D+01 -.800676208521D-08
     .796461747257D-10  .100000000000D+01  .233900000000D+04  .000000000000D+00
     .240000000000D+01  .000000000000D+00 -.107102096081D-07  .118000000000D+03
     .403200000000D+06  .400000000000D+01
7  24 11  7 18  0  0.0 -.216178596020D-04  .250111042988D-11  .000000000000D+00
     .660000000000D+02 -.675000000000D+01  .516485799421D-08  .134038176417D+01
    -.357627868652D-06  .188206719467D-01  .816583633423D-05  .515359110641D+04
     .410400000000D+06 -.471249222755D-06  .228049313752D+01  .391155481339D-07
     .950207913139D+00  .224093750000D+03 -.209514624012D+01 -.841035032485D-08
     .157506560780D-09  .100000000000D+01  .233900000000D+04  .000000000000D+00
     .240000000000D+01  .000000000000D+00 -.107102096081D-07  .660000000000D+02
     .403200000000D+06  .400000000000D+01
8  24 11  7 18  0  0.0  .407175160944D-03  .105728759081D-10  .000000000000D+00
     .420000000000D+02  .708125000000D+02  .450197323954D-08 -.214755104370D+01
     .366382300854D-05  .990920618642D-02  .840052962303D-05  .515370800209D+04
     .410400000000D+06 -.484287738800D-07 -.194594856633D+01 -.670552253723D-07
     .950590156078D+00  .213281250000D+03  .374903436667D+00 -.791390107432D-08
    -.162506769059D-09  .100000000000D+01  .233900000000D+04  .000000000000D+00
     .240000000000D+01  .000000000000D+00  .465661287308D-08  .420000000000D+02
     .403200000000D+06  .400000000000D+01
30 24 11  7 18  0  0.0 -.286669004709D-03  .773070496507D-11  .000000000000D+00
     .600000000000D+01  .875000000000D+00  .551094383865D-08  .120077205839D+01
     .186264514923D-06  .714441668242D-02  .761635601521D-05  .515377774429D+04
     .410400000000D+06 -.298023223877D-07  .227865579580D+01  .134110450745D-06
     .935369795461D+00  .221531250000D+03 -.246233825231D+01 -.848821071090D-08
     .144291724615D-09  .100000000000D+01  .233900000000D+04  .000000000000D+00
     .240000000000D+01  .000000000000D+00  .372529029846D-08  .600000000000D+01
     .403200000000D+06  .400000000000D+01
19 24 11  7 18  0  0.0  .560010317713D-03  .454747350886D-11  .000000000000D+00
     .100000000000D+02  .763125000000D+02  .423446209663D-08 -.341723910424D+00
     .393204391003D-05  .998139497824D-02  .755675137043D-05  .515375194550D+04
     .410400000000D+06  .137835741043D-06 -.180436889361D+01 -.249594449997D-06
     .965520298619D+00  .242937500000D+03  .267615536857D+01 -.799319009131D-08
    -.220366321999D-09  .100000000000D+01  .233900000000D+04  .000000000000D+00
     .240000000000D+01  .000000000000D+00 -.153668224812D-07  .100000000000D+02
     .403200000000D+06  .400000000000D+01
22 24 11  7 18  0  0.0 -.775917433202D-04 -.295585778076D-11  .000000000000D+00
     .240000000000D+02  .285625000000D+02  .462340686917D-08 -.168003902631D+01
     .147894024849D-05  .138388295891D-01  .828877091408D-05  .515368462944D+04
     .410400000000D+06 -.359490513802D-06 -.286598192447D+01  .238418579102D-06
     .960507867294D+00  .221218750000D+03 -.109273542950D+01 -.801747681723D-08
    -.488234622646D-09  .100000000000D+01  .233900000000D+04  .000000000000D+00
     .240000000000D+01  .000000000000D+00 -.111758708954D-07  .240000000000D+02
     .403200000000D+06  .400000000000D+01
31 24 11  7 18  0  0.0 -.222155358642D-03  .682121026330D-12  .000000000000D+00
     .650000000000D+02 -.612500000000D+01  .500913722210D-08  .276808535718D+00
    -.117346644402D-06  .107027541380D-01  .759772956371D-05  .515358202362D+04
     .410400000000D+06 -.745058059692D-08  .230270426284D+01  .117346644402D-06
     .954155821403D+00  .229406250000D+03  .766463519608D+00 -.820784188956D-08
     .116790579082D-09  .100000000000D+01  .233900000000D+04  .000000000000D+00
     .240000000000D+01  .000000000000D+00 -.130385160446D-07  .650000000000D+02
     .403200000000D+06  .400000000000D+01
24 24 11  7 18  0  0.0 -.481497962028D-03  .193267624127D-11  .000000000000D+00
     .350000000000D+02 -.104687500000D+02  .533879381076D-08  .223439056016D+01
    -.752508640289D-06  .162465421017D-01  .800192356110D-05  .515368925667D+04
     .410400000000D+06 -.540167093277D-07  .218056899649D+01 -.303611159325D-06
     .933894966302D+00  .209937500000D+03  .102784410078D+01 -.806247869174D-08
     .285726187357D-09  .100000000000D+01  .233900000000D+04  .000000000000D+00
     .240000000000D+01  .000000000000D+00  .232830643654D-08  .350000000000D+02
     .403200000000D+06  .400000000000D+01
21 24 11  7 18  0  0.0  .980086624622D-04 -.909494701773D-12  .000000000000D+00
     .400000000000D+02  .663125000000D+02  .424874840600D-08 -.234516780222D+01
     .372529029846D-05  .255327707855D-01  .471621751785D-05  .515364057350D+04
     .410400000000D+06 -.456348061562D-06 -.954058866507D+00  .270083546638D-06
     .960921191390D+00  .294093750000D+03 -.496592532021D+00 -.796961768085D-08
     .113219001740D-09  .100000000000D+01  .233900000000D+04  .000000000000D+00
     .240000000000D+01  .000000000000D+00 -.102445483208D-07  .400000000000D+02
     .403200000000D+06  .400000000000D+01
12 24 11  7 18  0  0.0 -.550518743694D-03 -.250111042988D-11  .000000000000D+00
     .910000000000D+02  .298437500000D+02  .464376486002D-08  .624934282450D+00
     .150315463543D-05  .882621319033D-02  .835023820400D-05  .515356768417D+04
     .410400000000D+06 -.111758708954D-06 -.288693919149D+01  .372529029846D-08
     .961768093684D+00  .221187500000D+03  .146549563998D+01 -.806105006081D-08
    -.448947271884D-09  .100000000000D+01  .233900000000D+04  .000000000000D+00
     .240000000000D+01  .000000000000D+00 -.125728547573D-07  .910000000000D+02
     .403200000000D+06  .400000000000D+01
